{"type": "FeatureCollection", "crs": {"type": "name", "properties": {"name": "urn:ogc:def:crs:OGC:1.3:CRS84"}}, "features": [{"type": "Feature", "properties": {"name": "Archaean Mangalwar basement (Yilgarn-analogue domain)", "source": "Mangalwar Complex unit 22 from NW_india_map_figure, georeferenced; Sandmata polygon subtracted"}, "geometry": {"type": "MultiPolygon", "coordinates": [[[[74.01294367812397, 25.125318900648473], [74.049413334099, 25.125318900648473], [74.049413334099, 25.191745106886714], [74.12235264604905, 25.224958210005834], [74.12235264604905, 25.291384416244075], [74.1952919579991, 25.324597519363195], [74.1952919579991, 25.424236828720556], [74.26823126994915, 25.457449931839676], [74.26823126994915, 25.523876138077917], [74.30470092592418, 25.523876138077917], [74.30470092592418, 25.590302344316157], [74.37764023787423, 25.623515447435278], [74.37764023787423, 25.68994165367352], [74.41410989384926, 25.68994165367352], [74.41410989384926, 25.72315475679264], [74.45057954982428, 25.72315475679264], [74.45057954982428, 25.789580963030883], [74.52351886177433, 25.822794066150003], [74.52351886177433, 25.889220272388243], [74.66939748567444, 25.988859581745604], [74.66939748567444, 26.022072684864725], [74.70586714164946, 26.022072684864725], [74.70586714164946, 26.088498891102965], [74.77880645359951, 26.088498891102965], [74.81527610957454, 26.154925097341206], [74.88821542152459, 26.121711994222085], [74.88821542152459, 26.088498891102965], [74.89468316617767, 26.088498891102965], [74.89142933229348, 26.07262501679986], [74.86272570344339, 26.062749800986282], [74.86152734120512, 26.038309882452676], [74.85215919196146, 26.039091463603754], [74.82982780675934, 25.967334870305088], [74.82045965751568, 25.96811645145616], [74.80929396491462, 25.93223815480683], [74.79992581567096, 25.933019735957902], [74.79812827231355, 25.896359858157496], [74.74889080161874, 25.85138792684566], [74.74769243938047, 25.826948008312055], [74.71838962941123, 25.804852833231674], [74.71719126717296, 25.78041291469807], [74.70782311792931, 25.781194495849142], [74.63745262427064, 25.688905889772247], [74.61871632578334, 25.690469052074395], [74.60814981430141, 25.666810714691866], [74.5894135158141, 25.668373876994014], [74.56887967396939, 25.63327716149576], [74.55014337548208, 25.634840323797906], [74.53957686400015, 25.611181986415378], [74.52084056551286, 25.612745148717526], [74.52024138439371, 25.600525189450725], [74.50090590478727, 25.58986839248607], [74.49970754254899, 25.565428473952466], [74.5184438410363, 25.563865311650318], [74.51604711655975, 25.514985474583106], [74.5066789673161, 25.51576705573418], [74.49611245583417, 25.492108718351652], [74.47737615734687, 25.4936718806538], [74.47677697622773, 25.481451921387], [74.44807334737763, 25.47157670557342], [74.4474741662585, 25.459356746306618], [74.39066608967744, 25.451826273946264], [74.39006690855831, 25.43960631467946], [74.37073142895187, 25.42894951771481], [74.37013224783273, 25.416729558448004], [74.51065448648751, 25.405005841181886], [74.51005530536838, 25.39278588191508], [74.51942345461204, 25.392004300764007], [74.51343164342066, 25.269804708095982], [74.55150342151441, 25.278898342758488], [74.55030505927613, 25.254458424224882], [74.634618402469, 25.24742419386521], [74.63401922134987, 25.235204234598406], [74.549705878157, 25.242238464958078], [74.54910669703786, 25.230018505691277], [74.53037039855056, 25.231581667993428], [74.52220061154517, 25.256803167678108], [74.51283246230152, 25.25758474882918], [74.51163410006325, 25.233144830295576], [74.30553481670289, 25.250339615619218], [74.30613399782203, 25.262559574886023], [74.29676584857837, 25.263341156037097], [74.2856001559773, 25.227462859387764], [74.26626467637087, 25.21680606242311], [74.2650663141326, 25.192366143889505], [74.24573083452616, 25.18170934692485], [74.24453247228787, 25.15726942839125], [74.22519699268143, 25.146612631426596], [74.22399863044316, 25.12217271289299], [74.20466315083672, 25.111515915928337], [74.20346478859844, 25.08707599739473], [74.17476115974834, 25.077200781581155], [74.16299628602815, 25.029102525665017], [74.13369347605891, 25.007007350584637], [74.12312696457698, 24.98334901320211], [74.09502251684603, 24.98569375665533], [74.09442333572689, 24.97347379738853], [74.08505518648325, 24.974255378539603], [74.0844560053641, 24.9620354192728], [74.12192860233871, 24.958909094668503], [74.12132942121957, 24.946689135401698], [74.13069757046323, 24.945907554250624], [74.13009838934408, 24.933687594983823], [74.11076290973764, 24.92303079801917], [74.10956454749937, 24.898590879485564], [74.10019639825572, 24.89937246063664], [74.1083661852611, 24.874150960951958], [74.08026173753014, 24.876495704405183], [74.07966255641101, 24.864275745138382], [74.08903070565465, 24.86349416398731], [74.08663398117811, 24.814614326920097], [74.07726583193445, 24.81539590807117], [74.07846419417272, 24.839835826604777], [74.05972789568543, 24.841398988906924], [74.05912871456628, 24.829179029640123], [74.06849686380994, 24.82839744848905], [74.06669932045253, 24.791737570688642], [74.02982590459706, 24.807083854559743], [74.01686266863858, 24.734545680110003], [74.07367074521963, 24.742076152470357], [74.07546828857704, 24.778736030270764], [74.103572736308, 24.77639128681754], [74.11114334219424, 24.73894982786606], [74.13924778992521, 24.736605084412833], [74.13864860880606, 24.724385125146032], [74.19485750426799, 24.719695638239585], [74.1952919579991, 24.721091651939975], [74.1952919579991, 24.660335456980786], [74.23176161397413, 24.660335456980786], [74.23176161397413, 24.593909250742545], [74.26823126994915, 24.593909250742545], [74.26823126994915, 24.328204425789583], [74.30470092592418, 24.328204425789583], [74.30470092592418, 24.22856511643222], [74.3411705818992, 24.22856511643222], [74.3411705818992, 24.12892580707486], [74.48704920579931, 24.0292864977175], [74.48704920579931, 23.996073394598376], [74.15882230202408, 23.996073394598376], [74.15882230202408, 24.0292864977175], [74.12235264604905, 24.0292864977175], [74.12235264604905, 24.09571270395574], [74.08588299007403, 24.09571270395574], [74.08588299007403, 24.16213891019398], [74.049413334099, 24.16213891019398], [74.049413334099, 24.06249960083662], [73.97647402214895, 24.06249960083662], [73.97647402214895, 24.12892580707486], [74.01294367812397, 24.12892580707486], [74.01294367812397, 24.16213891019398], [73.90353471019888, 24.22856511643222], [73.90353471019888, 24.427843735146944], [73.94000436617392, 24.427843735146944], [73.94000436617392, 24.494269941385184], [73.97647402214895, 24.494269941385184], [73.97647402214895, 24.693548560099906], [73.90353471019888, 24.693548560099906], [73.90353471019888, 24.92604028193375], [73.94000436617392, 24.92604028193375], [73.94000436617392, 24.992466488171992], [73.97647402214895, 24.992466488171992], [74.01294367812397, 25.125318900648473]], [[74.31550214706569, 25.261777993734945], [74.49349698269508, 25.246927951864528], [74.50008797500558, 25.381347503799354], [74.35019758710715, 25.39385280221655], [74.34899922486888, 25.369412883682944], [74.33963107562522, 25.370194464834018], [74.33843271338695, 25.345754546300416], [74.3290645641433, 25.34653612745149], [74.31550214706569, 25.261777993734945]]], [[[75.04752231622497, 26.182301725351007], [75.08478412835791, 26.17919298644639], [75.08718085283446, 26.2280728235136], [75.0965490020781, 26.227291242362526], [75.09730719646399, 26.242754187064527], [75.10425308153185, 26.251188391367425], [75.10711551356003, 26.250949579745058], [75.10729275932756, 26.254564406698567], [75.14350301334977, 26.254564406698567], [75.14350301334977, 26.287777509817687], [75.1799726693248, 26.287777509817687], [75.1799726693248, 26.320990612936807], [75.21644232529982, 26.320990612936807], [75.21644232529982, 26.354203716055927], [75.25291198127485, 26.354203716055927], [75.25291198127485, 26.387416819175048], [75.28938163724987, 26.387416819175048], [75.28938163724987, 26.420629922294168], [75.3258512932249, 26.420629922294168], [75.3258512932249, 26.45384302541329], [75.36232094919993, 26.45384302541329], [75.36232094919993, 26.48705612853241], [75.39879060517495, 26.48705612853241], [75.39879060517495, 26.520269231651532], [75.43526026114998, 26.520269231651532], [75.43526026114998, 26.55348233477065], [75.471729917125, 26.55348233477065], [75.471729917125, 26.586695437889773], [75.50819957310003, 26.586695437889773], [75.50819957310003, 26.653121644128014], [75.54466922907505, 26.653121644128014], [75.54466922907505, 26.719547850366254], [75.58113888505008, 26.719547850366254], [75.58113888505008, 26.785974056604495], [75.6176085410251, 26.785974056604495], [75.6176085410251, 26.819187159723615], [75.87289613285029, 26.852400262842735], [75.87289613285029, 26.885613365961856], [76.01877475675039, 26.885613365961856], [76.01877475675039, 26.287777509817687], [75.98230510077536, 26.287777509817687], [75.98230510077536, 26.254564406698567], [75.90936578882531, 26.254564406698567], [75.90936578882531, 26.188138200460326], [75.79995682090023, 26.121711994222085], [75.79995682090023, 26.055285787983845], [75.65407819700013, 25.955646478626484], [75.65407819700013, 25.922433375507364], [75.6176085410251, 25.922433375507364], [75.6176085410251, 25.889220272388243], [75.58113888505008, 25.889220272388243], [75.58113888505008, 25.856007169269123], [75.54466922907505, 25.856007169269123], [75.54466922907505, 25.789580963030883], [75.471729917125, 25.756367859911762], [75.471729917125, 25.72315475679264], [75.36232094919993, 25.72315475679264], [75.36232094919993, 25.656728550554398], [75.3258512932249, 25.656728550554398], [75.3258512932249, 25.623515447435278], [75.25291198127485, 25.623515447435278], [75.21644232529982, 25.557089241197037], [75.14350301334977, 25.557089241197037], [75.14350301334977, 25.523876138077917], [75.07056370139972, 25.523876138077917], [75.0340940454247, 25.457449931839676], [74.96115473347464, 25.457449931839676], [74.96115473347464, 25.424236828720556], [74.92468507749962, 25.424236828720556], [74.92468507749962, 25.391023725601436], [74.85174576554957, 25.391023725601436], [74.81527610957454, 25.324597519363195], [74.74233679762449, 25.324597519363195], [74.63292782969941, 25.191745106886714], [74.62398533220374, 25.191745106886714], [74.64218900835525, 25.209982734913726], [74.64398655171266, 25.246642612714133], [74.66272285019997, 25.245079450411986], [74.6633220313191, 25.257299409678787], [74.68265751092554, 25.26795620664344], [74.68385587316382, 25.292396125177046], [74.69322402240748, 25.291614544025972], [74.72372519461499, 25.338149637639958], [74.74246149310228, 25.336586475337807], [74.74306067422143, 25.34880643460461], [74.77236348419065, 25.370901609684992], [74.77416102754806, 25.4075614874854], [74.79289732603537, 25.405998325183248], [74.8034638375173, 25.42965666256578], [74.86027191409835, 25.437187134926134], [74.86087109521749, 25.449407094192935], [74.87023924446115, 25.44862551304186], [74.87083842558027, 25.460845472308662], [74.88020657482393, 25.46006389115759], [74.88080575594307, 25.47228385042439], [74.89017390518671, 25.471502269273316], [74.89077308630586, 25.48372222854012], [74.90014123554951, 25.482940647389043], [74.90074041666864, 25.495160606655848], [74.9101085659123, 25.49437902550477], [74.91070774703144, 25.506598984771575], [74.99981453917741, 25.597324428546322], [75.00101290141568, 25.621764347079928], [75.01038105065933, 25.62098276592885], [75.01098023177848, 25.633202725195655], [75.0402830417477, 25.655297900276036], [75.04148140398598, 25.67973781880964], [75.080751544318, 25.71327137200575], [75.08194990655628, 25.737711290539355], [75.09131805579993, 25.736929709388278], [75.0925164180382, 25.761369627921884], [75.10188456728186, 25.76058804677081], [75.10488047287754, 25.821687843104822], [75.12361677136485, 25.82012468080267], [75.12421595248398, 25.832344640069476], [75.15351876245322, 25.854439815149856], [75.17585014765534, 25.92619640844852], [75.185218296899, 25.925414827297445], [75.23565412983208, 25.994826677142886], [75.27372590792584, 26.00392031180539], [75.26675448315872, 26.053581730023676], [75.25738633391508, 26.05436331117475], [75.2492165469097, 26.07958481085943], [75.2304802484224, 26.081147973161578], [75.22231046141701, 26.106369472846257], [75.20357416292971, 26.10793263514841], [75.20417334404884, 26.12015259441521], [75.10112370236867, 26.128749987077033], [75.09295391536328, 26.153971486761712], [75.04611316914503, 26.157879392517085], [75.04551398802589, 26.145659433250284], [75.03614583878223, 26.146441014401358], [75.03729528467322, 26.16988331176124], [75.04752231622497, 26.182301725351007]]], [[[74.3411705818992, 24.89282717881463], [74.30470092592418, 24.89282717881463], [74.30470092592418, 24.826400972576387], [74.26823126994915, 24.826400972576387], [74.26823126994915, 24.759974766338146], [74.21564545528884, 24.759974766338146], [74.21658970835097, 24.779232272271447], [74.18908444173915, 24.793796974991473], [74.1727448677284, 24.844239974360832], [74.11713515338562, 24.861149420534083], [74.11953187786216, 24.91002925760129], [74.16637262408042, 24.90612135184592], [74.1657734429613, 24.893901392579117], [74.1845097414486, 24.892338230276966], [74.19507625293052, 24.915996567659498], [74.21381255141783, 24.914433405357347], [74.21441173253696, 24.92665336462415], [74.23314803102427, 24.925090202322], [74.23374721214341, 24.937310161588805], [74.28058795836166, 24.93340225583343], [74.27998877724254, 24.921182296566627], [74.29872507572983, 24.91961913426448], [74.2981258946107, 24.907399174997675], [74.32623034234166, 24.90505443154445], [74.3268295234608, 24.917274390811254], [74.3411705818992, 24.916077921725375], [74.3411705818992, 24.89282717881463]]]]}}]}