{"type": "FeatureCollection", "crs": {"type": "name", "properties": {"name": "urn:ogc:def:crs:OGC:1.3:CRS84"}}, "features": [{"type": "Feature", "properties": {"name": "Sandmata Complex", "source": "Auto colour-segmented from Ghosh 2026 Fig1a, georeferenced to graticule"}, "geometry": {"type": "MultiPolygon", "coordinates": [[[[74.13369347605891, 25.007007350584637], [74.12312696457698, 24.98334901320211], [74.09502251684603, 24.98569375665533], [74.09442333572689, 24.97347379738853], [74.08505518648325, 24.974255378539603], [74.0844560053641, 24.9620354192728], [74.12192860233871, 24.958909094668503], [74.12132942121957, 24.946689135401698], [74.13069757046323, 24.945907554250624], [74.13009838934408, 24.933687594983823], [74.11076290973764, 24.92303079801917], [74.10956454749937, 24.898590879485564], [74.10019639825572, 24.89937246063664], [74.1083661852611, 24.874150960951958], [74.08026173753014, 24.876495704405183], [74.07966255641101, 24.864275745138382], [74.08903070565465, 24.86349416398731], [74.08663398117811, 24.814614326920097], [74.07726583193445, 24.81539590807117], [74.07846419417272, 24.839835826604777], [74.05972789568543, 24.841398988906924], [74.05912871456628, 24.829179029640123], [74.06849686380994, 24.82839744848905], [74.06669932045253, 24.791737570688642], [74.02982590459706, 24.807083854559743], [74.01686266863858, 24.734545680110003], [74.07367074521963, 24.742076152470357], [74.07546828857704, 24.778736030270764], [74.103572736308, 24.77639128681754], [74.11114334219424, 24.73894982786606], [74.13924778992521, 24.736605084412833], [74.13864860880606, 24.724385125146032], [74.19485750426799, 24.719695638239585], [74.20602319686904, 24.755573934888915], [74.2153913461127, 24.75479235373784], [74.21658970835097, 24.779232272271447], [74.18908444173915, 24.793796974991473], [74.1727448677284, 24.844239974360832], [74.11713515338562, 24.861149420534083], [74.11953187786216, 24.91002925760129], [74.16637262408042, 24.90612135184592], [74.1657734429613, 24.893901392579117], [74.1845097414486, 24.892338230276966], [74.19507625293052, 24.915996567659498], [74.21381255141783, 24.914433405357347], [74.21441173253696, 24.92665336462415], [74.23314803102427, 24.925090202322], [74.23374721214341, 24.937310161588805], [74.28058795836166, 24.93340225583343], [74.27998877724254, 24.921182296566627], [74.29872507572983, 24.91961913426448], [74.2981258946107, 24.907399174997675], [74.32623034234166, 24.90505443154445], [74.3268295234608, 24.917274390811254], [74.3455658219481, 24.915711228509103], [74.35613233343003, 24.939369565891635], [74.37486863191734, 24.937806403589484], [74.45580563705792, 25.05375334704891], [74.51321289475811, 25.07350377867607], [74.54371406696562, 25.120038872290056], [74.56245036545293, 25.118475709987905], [74.56304954657206, 25.130695669254706], [74.64218900835525, 25.209982734913726], [74.64398655171266, 25.246642612714133], [74.66272285019997, 25.245079450411986], [74.6633220313191, 25.257299409678787], [74.68265751092554, 25.26795620664344], [74.68385587316382, 25.292396125177046], [74.69322402240748, 25.291614544025972], [74.72372519461499, 25.338149637639958], [74.74246149310228, 25.336586475337807], [74.74306067422143, 25.34880643460461], [74.77236348419065, 25.370901609684992], [74.77416102754806, 25.4075614874854], [74.79289732603537, 25.405998325183248], [74.8034638375173, 25.42965666256578], [74.86027191409835, 25.437187134926134], [74.86087109521749, 25.449407094192935], [74.87023924446115, 25.44862551304186], [74.87083842558027, 25.460845472308662], [74.88020657482393, 25.46006389115759], [74.88080575594307, 25.47228385042439], [74.89017390518671, 25.471502269273316], [74.89077308630586, 25.48372222854012], [74.90014123554951, 25.482940647389043], [74.90074041666864, 25.495160606655848], [74.9101085659123, 25.49437902550477], [74.91070774703144, 25.506598984771575], [74.99981453917741, 25.597324428546322], [75.00101290141568, 25.621764347079928], [75.01038105065933, 25.62098276592885], [75.01098023177848, 25.633202725195655], [75.0402830417477, 25.655297900276036], [75.04148140398598, 25.67973781880964], [75.080751544318, 25.71327137200575], [75.08194990655628, 25.737711290539355], [75.09131805579993, 25.736929709388278], [75.0925164180382, 25.761369627921884], [75.10188456728186, 25.76058804677081], [75.10488047287754, 25.821687843104822], [75.12361677136485, 25.82012468080267], [75.12421595248398, 25.832344640069476], [75.15351876245322, 25.854439815149856], [75.17585014765534, 25.92619640844852], [75.185218296899, 25.925414827297445], [75.23565412983208, 25.994826677142886], [75.27372590792584, 26.00392031180539], [75.26675448315872, 26.053581730023676], [75.25738633391508, 26.05436331117475], [75.2492165469097, 26.07958481085943], [75.2304802484224, 26.081147973161578], [75.22231046141701, 26.106369472846257], [75.20357416292971, 26.10793263514841], [75.20417334404884, 26.12015259441521], [75.10112370236867, 26.128749987077033], [75.09295391536328, 26.153971486761712], [75.04611316914503, 26.157879392517085], [75.04551398802589, 26.145659433250284], [75.03614583878223, 26.146441014401358], [75.03914174437791, 26.20754081073537], [75.04850989362157, 26.206759229584296], [75.0473115313833, 26.18231931105069], [75.08478412835791, 26.17919298644639], [75.08718085283446, 26.2280728235136], [75.0965490020781, 26.227291242362526], [75.09774736431639, 26.25173116089613], [75.10711551356003, 26.250949579745058], [75.10891305691744, 26.287609457545464], [75.0995449076738, 26.28839103869654], [75.09137512066842, 26.313612538381218], [75.07263882218112, 26.31517570068337], [75.07323800330025, 26.32739565995017], [75.02639725708198, 26.331303565705543], [75.02579807596285, 26.319083606438742], [75.00646259635641, 26.30842680947409], [75.00526423411813, 26.283986890940483], [74.98592875451169, 26.27333009397583], [74.98473039227342, 26.248890175442224], [74.96539491266698, 26.23823337847757], [74.9641965504287, 26.213793459943968], [74.94486107082226, 26.203136662979315], [74.94366270858399, 26.17869674444571], [74.92432722897755, 26.168039947481056], [74.92312886673926, 26.14360002894745], [74.90379338713282, 26.132943231982797], [74.89142933229348, 26.07262501679986], [74.86272570344339, 26.062749800986282], [74.86152734120512, 26.038309882452676], [74.85215919196146, 26.039091463603754], [74.82982780675934, 25.967334870305088], [74.82045965751568, 25.96811645145616], [74.80929396491462, 25.93223815480683], [74.79992581567096, 25.933019735957902], [74.79812827231355, 25.896359858157496], [74.74889080161874, 25.85138792684566], [74.74769243938047, 25.826948008312055], [74.71838962941123, 25.804852833231674], [74.71719126717296, 25.78041291469807], [74.70782311792931, 25.781194495849142], [74.63745262427064, 25.688905889772247], [74.61871632578334, 25.690469052074395], [74.60814981430141, 25.666810714691866], [74.5894135158141, 25.668373876994014], [74.56887967396939, 25.63327716149576], [74.55014337548208, 25.634840323797906], [74.53957686400015, 25.611181986415378], [74.52084056551286, 25.612745148717526], [74.52024138439371, 25.600525189450725], [74.50090590478727, 25.58986839248607], [74.49970754254899, 25.565428473952466], [74.5184438410363, 25.563865311650318], [74.51604711655975, 25.514985474583106], [74.5066789673161, 25.51576705573418], [74.49611245583417, 25.492108718351652], [74.47737615734687, 25.4936718806538], [74.47677697622773, 25.481451921387], [74.44807334737763, 25.47157670557342], [74.4474741662585, 25.459356746306618], [74.39066608967744, 25.451826273946264], [74.39006690855831, 25.43960631467946], [74.37073142895187, 25.42894951771481], [74.37013224783273, 25.416729558448004], [74.51065448648751, 25.405005841181886], [74.51005530536838, 25.39278588191508], [74.51942345461204, 25.392004300764007], [74.51343164342066, 25.269804708095982], [74.55150342151441, 25.278898342758488], [74.55030505927613, 25.254458424224882], [74.634618402469, 25.24742419386521], [74.63401922134987, 25.235204234598406], [74.549705878157, 25.242238464958078], [74.54910669703786, 25.230018505691277], [74.53037039855056, 25.231581667993428], [74.52220061154517, 25.256803167678108], [74.51283246230152, 25.25758474882918], [74.51163410006325, 25.233144830295576], [74.30553481670289, 25.250339615619218], [74.30613399782203, 25.262559574886023], [74.29676584857837, 25.263341156037097], [74.2856001559773, 25.227462859387764], [74.26626467637087, 25.21680606242311], [74.2650663141326, 25.192366143889505], [74.24573083452616, 25.18170934692485], [74.24453247228787, 25.15726942839125], [74.22519699268143, 25.146612631426596], [74.22399863044316, 25.12217271289299], [74.20466315083672, 25.111515915928337], [74.20346478859844, 25.08707599739473], [74.17476115974834, 25.077200781581155], [74.16299628602815, 25.029102525665017], [74.13369347605891, 25.007007350584637]]], [[[74.3290645641433, 25.34653612745149], [74.31550214706569, 25.261777993734945], [74.49349698269508, 25.246927951864528], [74.50008797500558, 25.381347503799354], [74.35019758710715, 25.39385280221655], [74.34899922486888, 25.369412883682944], [74.33963107562522, 25.370194464834018], [74.33843271338695, 25.345754546300416], [74.3290645641433, 25.34653612745149]]], [[[74.78260662808448, 26.155323746213572], [74.78320580920361, 26.167543705480373], [74.80194210769092, 26.165980543178225], [74.80254128881006, 26.178200502445026], [74.84998121614746, 26.186512555956455], [74.8505803972666, 26.19873251522326], [74.87988320723582, 26.22082769030364], [74.8810815694741, 26.245267608837246], [74.91038437944333, 26.267362783917626], [74.91218192280074, 26.304022661718033], [74.90281377355709, 26.304804242869107], [74.90341295467623, 26.317024202135908], [74.89404480543257, 26.317805783286985], [74.87351096358786, 26.282709067788726], [74.85477466510055, 26.284272230090874], [74.85417548398142, 26.272052270824073], [74.78500335256102, 26.20420358328078], [74.78380499032275, 26.179763664747178], [74.76446951071631, 26.169106867782524], [74.76387032959717, 26.15688690851572], [74.78260662808448, 26.155323746213572]]]]}}]}